CCSDS_OMM_VERS = 2.0
CREATION_DATE  = 
ORIGINATOR     = 

OBJECT_NAME    = ORBVIEW 2 (SEASTAR)
OBJECT_ID      = 1997-037A
CENTER_NAME    = EARTH
REF_FRAME      = TEME
TIME_SYSTEM    = UTC
MEAN_ELEMENT_THEORY = SGP/SGP4

EPOCH          = 2025-11-24T22:20:44.517984
MEAN_MOTION    = 14.35397429
ECCENTRICITY   = .00025369
INCLINATION    = 98.8453
RA_OF_ASC_NODE = 125.5583
ARG_OF_PERICENTER = 33.0476
MEAN_ANOMALY   = 327.0867

EPHEMERIS_TYPE = 0
CLASSIFICATION_TYPE = U
NORAD_CAT_ID   = 24883
ELEMENT_SET_NO = 999
REV_AT_EPOCH   = 49344
BSTAR          = .14919622E-3
MEAN_MOTION_DOT = .382E-5
MEAN_MOTION_DDOT = 0

CCSDS_OMM_VERS = 2.0
CREATION_DATE  = 
ORIGINATOR     = 

OBJECT_NAME    = SL-16 R/B
OBJECT_ID      = 1998-043G
CENTER_NAME    = EARTH
REF_FRAME      = TEME
TIME_SYSTEM    = UTC
MEAN_ELEMENT_THEORY = SGP/SGP4

EPOCH          = 2025-11-24T18:23:06.230976
MEAN_MOTION    = 14.26018953
ECCENTRICITY   = .00091961
INCLINATION    = 98.8097
RA_OF_ASC_NODE = 276.4862
ARG_OF_PERICENTER = 324.9340
MEAN_ANOMALY   = 35.1233

EPHEMERIS_TYPE = 0
CLASSIFICATION_TYPE = U
NORAD_CAT_ID   = 25400
ELEMENT_SET_NO = 999
REV_AT_EPOCH   = 42403
BSTAR          = .62732121E-4
MEAN_MOTION_DOT = .105E-5
MEAN_MOTION_DDOT = 0

CCSDS_OMM_VERS = 2.0
CREATION_DATE  = 
ORIGINATOR     = 

OBJECT_NAME    = SL-16 R/B
OBJECT_ID      = 1998-045B
CENTER_NAME    = EARTH
REF_FRAME      = TEME
TIME_SYSTEM    = UTC
MEAN_ELEMENT_THEORY = SGP/SGP4

EPOCH          = 2025-11-24T23:09:32.700384
MEAN_MOTION    = 14.16170286
ECCENTRICITY   = .00080163
INCLINATION    = 71.0124
RA_OF_ASC_NODE = 41.8061
ARG_OF_PERICENTER = 201.6922
MEAN_ANOMALY   = 158.3863

EPHEMERIS_TYPE = 0
CLASSIFICATION_TYPE = U
NORAD_CAT_ID   = 25407
ELEMENT_SET_NO = 999
REV_AT_EPOCH   = 41227
BSTAR          = .1599948E-3
MEAN_MOTION_DOT = .269E-5
MEAN_MOTION_DDOT = 0

CCSDS_OMM_VERS = 2.0
CREATION_DATE  = 
ORIGINATOR     = 

OBJECT_NAME    = ISS (ZARYA)
OBJECT_ID      = 1998-067A
CENTER_NAME    = EARTH
REF_FRAME      = TEME
TIME_SYSTEM    = UTC
MEAN_ELEMENT_THEORY = SGP/SGP4

EPOCH          = 2025-11-24T20:48:53.618400
MEAN_MOTION    = 15.49056620
ECCENTRICITY   = .00038955
INCLINATION    = 51.6314
RA_OF_ASC_NODE = 230.9455
ARG_OF_PERICENTER = 164.8499
MEAN_ANOMALY   = 195.2607

EPHEMERIS_TYPE = 0
CLASSIFICATION_TYPE = U
NORAD_CAT_ID   = 25544
ELEMENT_SET_NO = 999
REV_AT_EPOCH   = 54008
BSTAR          = .27142085E-3
MEAN_MOTION_DOT = .14562E-3
MEAN_MOTION_DDOT = 0

CCSDS_OMM_VERS = 2.0
CREATION_DATE  = 
ORIGINATOR     = 

OBJECT_NAME    = CZ-4B R/B
OBJECT_ID      = 1999-025C
CENTER_NAME    = EARTH
REF_FRAME      = TEME
TIME_SYSTEM    = UTC
MEAN_ELEMENT_THEORY = SGP/SGP4

EPOCH          = 2025-11-24T23:18:30.433248
MEAN_MOTION    = 14.18237142
ECCENTRICITY   = .00360212
INCLINATION    = 98.6794
RA_OF_ASC_NODE = 10.6466
ARG_OF_PERICENTER = 286.5421
MEAN_ANOMALY   = 137.1706

EPHEMERIS_TYPE = 0
CLASSIFICATION_TYPE = U
NORAD_CAT_ID   = 25732
ELEMENT_SET_NO = 999
REV_AT_EPOCH   = 37332
BSTAR          = .68253365E-4
MEAN_MOTION_DOT = .98E-6
MEAN_MOTION_DDOT = 0

CCSDS_OMM_VERS = 2.0
CREATION_DATE  = 
ORIGINATOR     = 

OBJECT_NAME    = OKEAN-O
OBJECT_ID      = 1999-039A
CENTER_NAME    = EARTH
REF_FRAME      = TEME
TIME_SYSTEM    = UTC
MEAN_ELEMENT_THEORY = SGP/SGP4

EPOCH          = 2025-11-24T20:59:54.851424
MEAN_MOTION    = 14.80116373
ECCENTRICITY   = .00010823
INCLINATION    = 97.9627
RA_OF_ASC_NODE = 24.7294
ARG_OF_PERICENTER = 70.2597
MEAN_ANOMALY   = 289.8731

EPHEMERIS_TYPE = 0
CLASSIFICATION_TYPE = U
NORAD_CAT_ID   = 25860
ELEMENT_SET_NO = 999
REV_AT_EPOCH   = 41888
BSTAR          = .12581299E-3
MEAN_MOTION_DOT = .902E-5
MEAN_MOTION_DDOT = 0

CCSDS_OMM_VERS = 2.0
CREATION_DATE  = 
ORIGINATOR     = 

OBJECT_NAME    = SL-16 R/B
OBJECT_ID      = 1999-039B
CENTER_NAME    = EARTH
REF_FRAME      = TEME
TIME_SYSTEM    = UTC
MEAN_ELEMENT_THEORY = SGP/SGP4

EPOCH          = 2025-11-24T21:17:36.304800
MEAN_MOTION    = 14.81548473
ECCENTRICITY   = .00137135
INCLINATION    = 98.0149
RA_OF_ASC_NODE = 23.0352
ARG_OF_PERICENTER = 234.4586
MEAN_ANOMALY   = 125.5348

EPHEMERIS_TYPE = 0
CLASSIFICATION_TYPE = U
NORAD_CAT_ID   = 25861
ELEMENT_SET_NO = 999
REV_AT_EPOCH   = 42134
BSTAR          = .10962811E-3
MEAN_MOTION_DOT = .807E-5
MEAN_MOTION_DDOT = 0

CCSDS_OMM_VERS = 2.0
CREATION_DATE  = 
ORIGINATOR     = 

OBJECT_NAME    = DELTA 2 R/B
OBJECT_ID      = 1999-041E
CENTER_NAME    = EARTH
REF_FRAME      = TEME
TIME_SYSTEM    = UTC
MEAN_ELEMENT_THEORY = SGP/SGP4

EPOCH          = 2025-11-24T19:08:40.354656
MEAN_MOTION    = 14.11334676
ECCENTRICITY   = .0504903
INCLINATION    = 51.7627
RA_OF_ASC_NODE = 0.0653
ARG_OF_PERICENTER = 38.8954
MEAN_ANOMALY   = 324.7196

EPHEMERIS_TYPE = 0
CLASSIFICATION_TYPE = U
NORAD_CAT_ID   = 25876
ELEMENT_SET_NO = 999
REV_AT_EPOCH   = 34821
BSTAR          = .19950723E-3
MEAN_MOTION_DOT = .992E-5
MEAN_MOTION_DDOT = 0

CCSDS_OMM_VERS = 2.0
CREATION_DATE  = 
ORIGINATOR     = 

OBJECT_NAME    = HELIOS 1B
OBJECT_ID      = 1999-064A
CENTER_NAME    = EARTH
REF_FRAME      = TEME
TIME_SYSTEM    = UTC
MEAN_ELEMENT_THEORY = SGP/SGP4

EPOCH          = 2025-11-24T16:55:19.366464
MEAN_MOTION    = 14.87170864
ECCENTRICITY   = .00024232
INCLINATION    = 98.1752
RA_OF_ASC_NODE = 222.8371
ARG_OF_PERICENTER = 67.5288
MEAN_ANOMALY   = 292.6183

EPHEMERIS_TYPE = 0
CLASSIFICATION_TYPE = U
NORAD_CAT_ID   = 25977
ELEMENT_SET_NO = 999
REV_AT_EPOCH   = 66965
BSTAR          = .21925988E-3
MEAN_MOTION_DOT = .1913E-4
MEAN_MOTION_DDOT = 0

CCSDS_OMM_VERS = 2.0
CREATION_DATE  = 
ORIGINATOR     = 

OBJECT_NAME    = TERRA
OBJECT_ID      = 1999-068A
CENTER_NAME    = EARTH
REF_FRAME      = TEME
TIME_SYSTEM    = UTC
MEAN_ELEMENT_THEORY = SGP/SGP4

EPOCH          = 2025-11-24T22:44:50.122176
MEAN_MOTION    = 14.60922467
ECCENTRICITY   = .00030971
INCLINATION    = 97.9772
RA_OF_ASC_NODE = 21.2824
ARG_OF_PERICENTER = 134.0671
MEAN_ANOMALY   = 38.7202

EPHEMERIS_TYPE = 0
CLASSIFICATION_TYPE = U
NORAD_CAT_ID   = 25994
ELEMENT_SET_NO = 999
REV_AT_EPOCH   = 37978
BSTAR          = .13499032E-3
MEAN_MOTION_DOT = .616E-5
MEAN_MOTION_DDOT = 0

CCSDS_OMM_VERS = 2.0
CREATION_DATE  = 
ORIGINATOR     = 

OBJECT_NAME    = SL-16 R/B
OBJECT_ID      = 2000-006B
CENTER_NAME    = EARTH
REF_FRAME      = TEME
TIME_SYSTEM    = UTC
MEAN_ELEMENT_THEORY = SGP/SGP4

EPOCH          = 2025-11-24T09:18:43.636320
MEAN_MOTION    = 14.15801591
ECCENTRICITY   = .00174485
INCLINATION    = 71.0017
RA_OF_ASC_NODE = 319.2450
ARG_OF_PERICENTER = 334.4641
MEAN_ANOMALY   = 25.5619

EPHEMERIS_TYPE = 0
CLASSIFICATION_TYPE = U
NORAD_CAT_ID   = 26070
ELEMENT_SET_NO = 999
REV_AT_EPOCH   = 33365
BSTAR          = .76917982E-4
MEAN_MOTION_DOT = .104E-5
MEAN_MOTION_DDOT = 0

CCSDS_OMM_VERS = 2.0
CREATION_DATE  = 
ORIGINATOR     = 

OBJECT_NAME    = TITAN 4B R/B
OBJECT_ID      = 2000-047B
CENTER_NAME    = EARTH
REF_FRAME      = TEME
TIME_SYSTEM    = UTC
MEAN_ELEMENT_THEORY = SGP/SGP4

EPOCH          = 2025-11-24T20:13:43.151520
MEAN_MOTION    = 15.08591988
ECCENTRICITY   = .00404674
INCLINATION    = 67.9902
RA_OF_ASC_NODE = 335.1118
ARG_OF_PERICENTER = 165.8493
MEAN_ANOMALY   = 194.3800

EPHEMERIS_TYPE = 0
CLASSIFICATION_TYPE = U
NORAD_CAT_ID   = 26474
ELEMENT_SET_NO = 999
REV_AT_EPOCH   = 37709
BSTAR          = .27340901E-3
MEAN_MOTION_DOT = .4232E-4
MEAN_MOTION_DDOT = 0

