ORBVIEW 2 (SEASTAR)     
1 24883U 97037A   25328.93107081  .00000382  00000+0  14920-3 0  9991
2 24883  98.8453 125.5583 0002536  33.0476 327.0867 14.35397429493446
SL-16 R/B               
1 25400U 98043G   25328.76604434  .00000105  00000+0  62732-4 0  9998
2 25400  98.8097 276.4862 0009196 324.9340  35.1233 14.26018953424038
SL-16 R/B               
1 25407U 98045B   25328.96496181  .00000269  00000+0  15999-3 0  9990
2 25407  71.0124  41.8061 0008016 201.6922 158.3863 14.16170286412278
ISS (ZARYA)             
1 25544U 98067A   25328.86728725  .00014562  00000+0  27142-3 0  9991
2 25544  51.6314 230.9455 0003895 164.8499 195.2607 15.49056620540081
CZ-4B R/B               
1 25732U 99025C   25328.97118557  .00000098  00000+0  68253-4 0  9991
2 25732  98.6794  10.6466 0036021 286.5421 137.1706 14.18237142373323
OKEAN-O                 
1 25860U 99039A   25328.87494041  .00000902  00000+0  12581-3 0  9998
2 25860  97.9627  24.7294 0001082  70.2597 289.8731 14.80116373418883
SL-16 R/B               
1 25861U 99039B   25328.88722575  .00000807  00000+0  10963-3 0  9992
2 25861  98.0149  23.0352 0013713 234.4586 125.5348 14.81548473421344
DELTA 2 R/B             
1 25876U 99041E   25328.79768929  .00000992  00000+0  19951-3 0  9995
2 25876  51.7627   0.0653 0504903  38.8954 324.7196 14.11334676348216
HELIOS 1B               
1 25977U 99064A   25328.70508526  .00001913  00000+0  21926-3 0  9997
2 25977  98.1752 222.8371 0002423  67.5288 292.6183 14.87170864669655
TERRA                   
1 25994U 99068A   25328.94780234  .00000616  00000+0  13499-3 0  9999
2 25994  97.9772  21.2824 0003097 134.0671  38.7202 14.60922467379789
SL-16 R/B               
1 26070U 00006B   25328.38800505  .00000104  00000+0  76918-4 0  9999
2 26070  71.0017 319.2450 0017448 334.4641  25.5619 14.15801591333659
TITAN 4B R/B            
1 26474U 00047B   25328.84286055  .00004232  00000+0  27341-3 0  9992
2 26474  67.9902 335.1118 0040467 165.8493 194.3800 15.08591988377092
